NORAD_CAT_ID,OBJECT_NAME,OBJECT_TYPE,EPOCH,MEAN_MOTION,ECCENTRICITY,INCLINATION,RA_OF_ASC_NODE,ARG_OF_PERICENTER,MEAN_ANOMALY,BSTAR,MEAN_MOTION_DOT,MEAN_MOTION_DDOT,TLE_LINE0,TLE_LINE1,TLE_LINE2,SEMIMAJOR_AXIS,PERIOD,APOGEE,PERIGEE,DECAYED
52867.0,STARLINK-4126,PAYLOAD,2024-04-17 16:44:50,15.08829225,0.0001207,53.2162,246.1019,113.4176,246.6943,-1.4782e-05,-5.23e-06,0.0,0 STARLINK-4126,1 52867U 22062AP  24108.69780632 -.00000523  00000-0 -14782-4 0  9994,2 52867  53.2162 246.1019 0001207 113.4176 246.6943 15.08829225101610,6917.913,95.438,540.613,538.943,0.0
52867.0,STARLINK-4126,PAYLOAD,2024-04-18 13:24:53,15.08795401,0.0001759,53.2186,242.2385,62.4362,297.6808,-0.0004182,-6.929e-05,0.0,0 STARLINK-4126,1 52867U 22062AP  24109.55895158 -.00006929  00000-0 -41820-3 0  9998,2 52867  53.2186 242.2385 0001759  62.4362 297.6808 15.08795401102234,6918.017,95.44,541.099,538.665,0.0
52867.0,STARLINK-4126,PAYLOAD,2024-04-18 16:35:38,15.08834206,0.0001495,53.2172,241.6383,62.1477,297.9666,3.5624e-05,2.79e-06,0.0,0 STARLINK-4126,1 52867U 22062AP  24109.69141356  .00000279  00000-0  35624-4 0  9993,2 52867  53.2172 241.6383 0001495  62.1477 297.9666 15.08834206102255,6917.898,95.438,540.797,538.729,0.0
52867.0,STARLINK-4126,PAYLOAD,2024-04-19 14:51:02,15.08842974,0.0002409,53.2183,237.4768,47.3249,312.7945,0.00041737,6.361e-05,0.0,0 STARLINK-4126,1 52867U 22062AP  24110.61878064  .00006361  00000-0  41737-3 0  9999,2 52867  53.2183 237.4768 0002409  47.3249 312.7945 15.08842974101903,6917.871,95.437,541.403,538.07,0.0
52867.0,STARLINK-4126,PAYLOAD,2024-04-20 13:06:25,15.08844816,0.000138,53.2172,233.3053,130.3383,229.773,0.00043384,6.624e-05,0.0,0 STARLINK-4126,1 52867U 22062AP  24111.54612990  .00006624  00000-0  43384-3 0  9998,2 52867  53.2172 233.3053 0001380 130.3383 229.7730 15.08844816102538,6917.866,95.437,540.685,538.776,0.0
52867.0,STARLINK-4126,PAYLOAD,2024-04-20 14:41:48,15.08846147,0.0001712,53.2171,233.007,139.3191,220.7929,0.0004095,6.236e-05,0.0,0 STARLINK-4126,1 52867U 22062AP  24111.61236773  .00006236  00000-0  40950-3 0  9992,2 52867  53.2171 233.0070 0001712 139.3191 220.7929 15.08846147102055,6917.862,95.437,540.911,538.542,0.0
52867.0,STARLINK-4126,PAYLOAD,2024-04-20 17:52:34,15.08847292,0.0001371,53.2166,232.4229,116.1884,243.9249,0.00045493,6.961e-05,0.0,0 STARLINK-4126,1 52867U 22062AP  24111.74484769  .00006961  00000-0  45493-3 0  9998,2 52867  53.2166 232.4229 0001371 116.1884 243.9249 15.08847292102077,6917.858,95.437,540.672,538.775,0.0
52867.0,STARLINK-4126,PAYLOAD,2024-04-21 12:57:11,15.08857487,0.0001431,53.2163,228.8497,104.6984,255.4167,-0.00011488,-2.117e-05,0.0,0 STARLINK-4126,1 52867U 22062AP  24112.53971628 -.00002117  00000-0 -11488-3 0  9999,2 52867  53.2163 228.8497 0001431 104.6984 255.4167 15.08857487102197,6917.827,95.436,540.682,538.702,0.0
52867.0,STARLINK-4126,PAYLOAD,2024-04-22 11:12:37,15.08819243,0.0001521,53.2169,224.6879,111.8859,248.2295,-0.00010495,-1.957e-05,0.0,0 STARLINK-4126,1 52867U 22062AP  24113.46709942 -.00001957  00000-0 -10495-3 0  9998,2 52867  53.2169 224.6879 0001521 111.8859 248.2295 15.08819243102822,6917.944,95.439,540.861,538.757,0.0
52867.0,STARLINK-4126,PAYLOAD,2024-04-22 17:34:09,15.08825126,0.0001436,53.2171,223.4969,119.2752,240.8384,-5.5804e-05,-1.176e-05,0.0,0 STARLINK-4126,1 52867U 22062AP  24113.73205635 -.00001176  00000-0 -55804-4 0  9995,2 52867  53.2171 223.4969 0001436 119.2752 240.8384 15.08825126102869,6917.926,95.438,540.784,538.797,0.0
52867.0,STARLINK-4126,PAYLOAD,2024-04-23 12:38:47,15.08827283,0.0001464,53.2169,219.932,78.8818,281.2339,-9.3808e-06,-4.37e-06,0.0,0 STARLINK-4126,1 52867U 22062AP  24114.52694268 -.00000437  00000-0 -93808-5 0  9993,2 52867  53.2169 219.9320 0001464  78.8818 281.2339 15.08827283102495,6917.919,95.438,540.797,538.771,0.0
52867.0,STARLINK-4126,PAYLOAD,2024-04-24 12:29:34,15.08840346,0.0001271,53.2165,215.4725,88.7394,271.3744,0.00040424,6.151e-05,0.0,0 STARLINK-4126,1 52867U 22062AP  24115.52053656  .00006151  00000-0  40424-3 0  9995,2 52867  53.2165 215.4725 0001271  88.7394 271.3744 15.08840346103133,6917.879,95.438,540.624,538.865,0.0
52867.0,STARLINK-4126,PAYLOAD,2024-04-24 14:04:57,15.08844665,0.0001271,53.2169,215.1753,79.6808,280.4328,0.00045979,7.038e-05,0.0,0 STARLINK-4126,1 52867U 22062AP  24115.58677568  .00007038  00000-0  45979-3 0  9990,2 52867  53.2169 215.1753 0001271  79.6808 280.4328 15.08844665102657,6917.866,95.437,540.61,538.852,0.0
52867.0,STARLINK-4126,PAYLOAD,2024-04-25 12:20:21,15.08839313,0.0001539,53.2175,211.0117,89.1889,270.9279,0.00010547,1.391e-05,0.0,0 STARLINK-4126,1 52867U 22062AP  24116.51414033  .00001391  00000-0  10547-3 0  9999,2 52867  53.2175 211.0117 0001539  89.1889 270.9279 15.08839313103288,6917.882,95.438,540.812,538.683,0.0
52867.0,STARLINK-4126,PAYLOAD,2024-04-25 13:55:44,15.08839553,0.000156,53.2177,210.7145,90.8203,269.2968,0.0001109,1.477e-05,0.0,0 STARLINK-4126,1 52867U 22062AP  24116.58038045  .00001477  00000-0  11090-3 0  9990,2 52867  53.2177 210.7145 0001560  90.8203 269.2968 15.08839553102809,6917.882,95.438,540.826,538.668,0.0
52867.0,STARLINK-4126,PAYLOAD,2024-04-26 12:11:08,15.08840319,0.0001497,53.2168,206.5538,89.8009,270.3155,0.00012134,1.644e-05,0.0,0 STARLINK-4126,1 52867U 22062AP  24117.50774181  .00001644  00000-0  12134-3 0  9997,2 52867  53.2168 206.5538 0001497  89.8009 270.3155 15.08840319102947,6917.879,95.438,540.78,538.709,0.0
52867.0,STARLINK-4126,PAYLOAD,2024-04-27 05:40:23,15.0884675,0.0002253,53.2165,203.2829,85.5758,274.5492,0.00026944,4.003e-05,0.0,0 STARLINK-4126,1 52867U 22062AP  24118.23638023  .00004003  00000-0  26944-3 0  9998,2 52867  53.2165 203.2829 0002253  85.5758 274.5492 15.08846750103548,6917.86,95.437,541.283,538.166,0.0
52867.0,STARLINK-4126,PAYLOAD,2024-04-27 12:01:55,15.08845598,0.0001511,53.215,202.093,99.501,260.6153,0.00020851,3.033e-05,0.0,0 STARLINK-4126,1 52867U 22062AP  24118.50133743  .00003033  00000-0  20851-3 0  9990,2 52867  53.2150 202.0930 0001511  99.5010 260.6153 15.08845598103093,6917.863,95.437,540.774,538.683,0.0
52867.0,STARLINK-4126,PAYLOAD,2024-04-28 11:52:42,15.08828164,0.000167,53.2178,197.633,102.4223,257.6956,-0.00028113,-4.758e-05,0.0,0 STARLINK-4126,1 52867U 22062AP  24119.49494136 -.00004758  00000-0 -28113-3 0  9991,2 52867  53.2178 197.6330 0001670 102.4223 257.6956 15.08828164103730,6917.917,95.438,540.937,538.626,0.0
52867.0,STARLINK-4126,PAYLOAD,2024-04-29 11:43:30,15.08847169,0.0001337,53.2153,193.174,103.1878,256.9264,0.0010097,0.00015821,0.0,0 STARLINK-4126,1 52867U 22062AP  24120.48854684  .00015821  00000-0  10097-2 0  9992,2 52867  53.2153 193.1740 0001337 103.1878 256.9264 15.08847169103889,6917.858,95.437,540.648,538.799,0.0
52867.0,STARLINK-4126,PAYLOAD,2024-04-29 21:15:48,15.08860976,0.0001358,53.2159,191.3903,102.0323,258.0822,0.0008933,0.00013966,0.0,0 STARLINK-4126,1 52867U 22062AP  24120.88598202  .00013966  00000-0  89330-3 0  9992,2 52867  53.2159 191.3903 0001358 102.0323 258.0822 15.08860976103459,6917.816,95.436,540.621,538.742,0.0
52867.0,STARLINK-4126,PAYLOAD,2024-04-30 05:12:44,15.08854205,0.0001622,53.2158,189.9024,91.3478,268.77,0.00047534,7.288e-05,0.0,0 STARLINK-4126,1 52867U 22062AP  24121.21718190  .00007288  00000-0  47534-3 0  9990,2 52867  53.2158 189.9024 0001622  91.3478 268.7700 15.08854205103990,6917.837,95.437,540.824,538.58,0.0
52867.0,STARLINK-4126,PAYLOAD,2024-04-30 11:34:16,15.08853292,0.0001263,53.2155,188.7132,94.8467,265.267,0.0004423,6.761e-05,0.0,0 STARLINK-4126,1 52867U 22062AP  24121.48214008  .00006761  00000-0  44230-3 0  9993,2 52867  53.2155 188.7132 0001263  94.8467 265.2670 15.08853292103545,6917.84,95.437,540.578,538.831,0.0
52867.0,STARLINK-4126,PAYLOAD,2024-04-30 21:06:35,15.08861812,0.0001252,53.2154,186.929,94.2985,265.8151,0.00089288,0.00013959,0.0,0 STARLINK-4126,1 52867U 22062AP  24121.87957663  .00013959  00000-0  89288-3 0  9996,2 52867  53.2154 186.9290 0001252  94.2985 265.8151 15.08861812103600,6917.814,95.436,540.545,538.813,0.0
52867.0,STARLINK-4126,PAYLOAD,2024-05-01 11:25:03,15.08843214,0.0001217,53.2164,184.2573,135.6526,224.4563,0.0002539,3.756e-05,0.0,0 STARLINK-4126,1 52867U 22062AP  24122.47573677  .00003756  00000-0  25390-3 0  9990,2 52867  53.2164 184.2573 0001217 135.6526 224.4563 15.08843214104186,6917.871,95.437,540.577,538.894,0.0
52867.0,STARLINK-4126,PAYLOAD,2024-05-01 20:57:22,15.08854545,0.0001333,53.2152,182.467,86.9382,273.1762,0.00071739,0.00011152,0.0,0 STARLINK-4126,1 52867U 22062AP  24122.87317458  .00011152  00000-0  71739-3 0  9994,2 52867  53.2152 182.4670 0001333  86.9382 273.1762 15.08854545103751,6917.836,95.437,540.623,538.779,0.0
52867.0,STARLINK-4126,PAYLOAD,2024-05-02 12:51:13,15.08837294,0.000125,53.2146,179.4938,89.5095,270.604,0.00013412,1.847e-05,0.0,0 STARLINK-4126,1 52867U 22062AP  24123.53557844  .00001847  00000-0  13412-3 0  9997,2 52867  53.2146 179.4938 0001250  89.5095 270.6040 15.08837294104344,6917.889,95.438,540.618,538.889,0.0
52867.0,STARLINK-4126,PAYLOAD,2024-05-03 11:06:37,15.08844699,0.0001121,53.215,175.331,81.2292,278.8827,0.00018827,2.71e-05,0.0,0 STARLINK-4126,1 52867U 22062AP  24124.46293708  .00002710  00000-0  18827-3 0  9991,2 52867  53.2150 175.3310 0001121  81.2292 278.8827 15.08844699103993,6917.866,95.437,540.507,538.956,0.0
52867.0,STARLINK-4126,PAYLOAD,2024-05-03 20:38:56,15.08848217,0.0001154,53.2152,173.5471,80.6027,279.5096,0.00020736,3.015e-05,0.0,0 STARLINK-4126,1 52867U 22062AP  24124.86037526  .00003015  00000-0  20736-3 0  9990,2 52867  53.2152 173.5471 0001154  80.6027 279.5096 15.08848217104546,6917.855,95.437,540.519,538.922,0.0
52867.0,STARLINK-4126,PAYLOAD,2024-05-04 12:32:48,15.08829369,0.0001333,53.215,170.5728,88.0443,272.0701,-4.089e-05,-9.38e-06,0.0,0 STARLINK-4126,1 52867U 22062AP  24125.52278800 -.00000938  00000-0 -40890-4 0  9993,2 52867  53.2150 170.5728 0001333  88.0443 272.0701 15.08829369104648,6917.913,95.438,540.7,538.856,0.0
